GAOFEN 5-02             
1 49122U 21079A   21275.49403287  .00000036  00000-0  17924-4 0  9997
2 49122  98.2819 346.6943 0001654 157.7493 202.3777 14.57684759  3696
CZ-4C R/B               
1 49123U 21079B   21274.76528985  .00000423  00000-0  40047-4 0  9992
2 49123  98.3179 347.5191 0137485 341.9235  17.7120 14.93117451  3673
2021-079C               
1 49124U 21079C   21272.70469719  .00002623  00000-0  14257-3 0  9991
2 49124  98.4033 344.6074 0221823 232.2673 125.8261 14.96975531  3299
CHINASAT 9B             
1 49125U 21080A   21275.52687983 -.00000316  00000-0  00000+0 0  9997
2 49125   0.0479 262.9544 0003983 275.5948 124.0219  1.00271655   408
CZ-3B R/B               
1 49126U 21080B   21271.05107489  .00032205 -27827-7  20949-2 0  9992
2 49126  24.6386 156.0913 7211978 191.6724 132.0487  2.39915434   277
COSMOS 2551             
1 49127U 21082A   21275.48623590  .00395275  67652-4  78950-3 0  9993
2 49127  96.3457   3.0077 0010002 221.8787 138.1730 15.99730326  3612
SL-4 R/B                
1 49128U 21081B   21275.19571839  .00080712  41346-5  21673-3 0  9999
2 49128  96.3461   2.7075 0012754 187.1397 172.9701 15.94345243  3562
STARLINK-3096           
1 49131U 21082B   21275.25001157  .00049512  00000-0  41460-3 0  9998
2 49131  70.0002  75.9454 0003539 266.3659 234.7243 15.69718685  2946
STARLINK-3090           
1 49132U 21082C   21275.08334491 -.00020653  00000-0 -17125-3 0  9998
2 49132  70.0021  76.4228 0003375 276.8192   0.6915 15.69805433  2921
STARLINK-3077           
1 49133U 21082D   21275.58334491 -.00003033  00000-0 -23635-4 0  9991
2 49133  70.0003  75.0054 0003466 270.2648 316.0657 15.69748791  3009
STARLINK-3078           
1 49134U 21082E   21275.25001157  .00045980  00000-0  38528-3 0  9997
2 49134  70.0003  75.9327 0003431 269.9568 241.7653 15.69720862  4145
STARLINK-3073           
1 49135U 21082F   21275.25001157  .00065320  00000-0  54558-3 0  9999
2 49135  70.0003  75.9378 0003486 270.1567 237.3168 15.69709794  2944
STARLINK-3084           
1 49136U 21082G   21275.25001157 -.00012894  00000-0 -10638-3 0  9991
2 49136  70.0021  75.9470 0003497 269.8850 235.7186 15.69752275  2944
STARLINK-3055           
1 49137U 21082H   21275.25001157  .00077380  00000-0  64522-3 0  9992
2 49137  70.0003  75.9353 0003599 269.8748 239.7281 15.69702908  2942
STARLINK-3058           
1 49138U 21082J   21275.58334491 -.00003367  00000-0 -26434-4 0  9996
2 49138  70.0004  74.9903 0003801 272.6935 326.3965 15.69748956  3003
STARLINK-3057           
1 49139U 21082K   21275.58334491 -.00003302  00000-0 -25889-4 0  9999
2 49139  70.0004  74.9929 0003889 270.7760 326.1874 15.69748921  3002
STARLINK-3118           
1 49140U 21082L   21275.58334491 -.00020766  00000-0 -17243-3 0  9998
2 49140  70.0017  74.9935 0003108 275.3104 328.2609 15.69775565  3005
STARLINK-3093           
1 49141U 21082M   21275.25001157  .00083327  00000-0  69123-3 0  9997
2 49141  70.0001  75.9327 0003513 270.2432 247.6078 15.69806653  4157
STARLINK-3042           
1 49142U 21082N   21275.58334491 -.00200686  00000-0 -17169-2 0  9997
2 49142  70.0015  74.9872 0003416 275.0005 330.6149 15.69789467  3006
STARLINK-3109           
1 49143U 21082P   21275.58334491 -.00003794  00000-0 -30021-4 0  9993
2 49143  70.0004  74.9804 0003385 271.8495 335.7468 15.69749167  3005
STARLINK-3100           
1 49144U 21082Q   21275.58334491 -.00003875  00000-0 -30690-4 0  9996
2 49144  70.0004  74.9753 0003838 272.4756 339.3738 15.69749213  3001
STARLINK-3119           
1 49145U 21082R   21275.58334491 -.00023195  00000-0 -19290-3 0  9996
2 49145  70.0006  74.9793 0003832 273.0093 343.3439 15.69766262  3009
STARLINK-3116           
1 49146U 21082S   21275.50002315  .00013676  00000-0  11616-3 0  9991
2 49146  70.0012  75.2123 0003196 272.9831 230.4455 15.69748477  4158
STARLINK-3071           
1 49147U 21082T   21275.50002315  .00000172  00000-0  32241-5 0  9998
2 49147  70.0003  75.2121 0003904 271.3891 227.6183 15.69747293  4154
STARLINK-3048           
1 49148U 21082U   21275.50002315  .00016708  00000-0  14137-3 0  9993
2 49148  70.0021  75.2086 0003525 274.1683 235.7330 15.69763408  4110
STARLINK-3053           
1 49149U 21082V   21275.50002315  .00000180  00000-0  32902-5 0  9993
2 49149  70.0004  75.2020 0004237 272.3005 235.2131 15.69747327  4193
STARLINK-3104           
1 49150U 21082W   21275.50002315 -.00038404  00000-0 -32109-3 0  9994
2 49150  70.0007  75.1998 0003477 272.6064 241.4861 15.69771442  4198
STARLINK-3102           
1 49151U 21082X   21275.50002315 -.00102821  00000-0 -86810-3 0  9998
2 49151  70.0006  75.2024 0003633 273.6055 238.4185 15.69803546  4190
STARLINK-3081           
1 49152U 21082Y   21275.08334491 -.00044157  00000-0 -36961-3 0  9994
2 49152  70.0015  76.3657 0003658 279.6995  46.8092 15.69777133  4056
STARLINK-3072           
1 49153U 21082Z   21275.58334491 -.00039395  00000-0 -32928-3 0  9997
2 49153  70.0024  74.9659 0003439 272.8334 354.1697 15.69785157  3007
STARLINK-3068           
1 49154U 21082AA  21275.50002315  .00011950  00000-0  10172-3 0  9999
2 49154  70.0025  75.1924 0003722 274.6118 248.0708 15.69751891  4061
STARLINK-3060           
1 49155U 21082AB  21275.50002315 -.00023925  00000-0 -19908-3 0  9993
2 49155  70.0010  75.1969 0003328 270.0549 248.3539 15.69764565  4062
STARLINK-3085           
1 49156U 21082AC  21275.50002315  .00017079  00000-0  14452-3 0  9994
2 49156  70.0010  75.1844 0003502 273.6191 255.4287 15.69754898  4068
STARLINK-3051           
1 49157U 21082AD  21275.50002315  .00016039  00000-0  13591-3 0  9993
2 49157  70.0022  75.1903 0003828 272.4897 252.2741 15.69740698  4084
STARLINK-3083           
1 49158U 21082AE  21274.91667824 -.00007380  00000-0 -60025-4 0  9996
2 49158  70.0013  76.8172 0003318 282.3251 195.3655 15.69778158  3148
STARLINK-3056           
1 49159U 21082AF  21275.25001157  .00044001  00000-0  36882-3 0  9998
2 49159  70.0003  75.8825 0003717 269.7393 284.5133 15.69722540  4047
STARLINK-3095           
1 49160U 21082AG  21275.33334491  .00113311  00000-0  93980-3 0  9992
2 49160  70.0014  75.6449 0003243 274.0476  39.6437 15.69708482  4041
STARLINK-3080           
1 49161U 21082AH  21275.25001157  .00008894  00000-0  76194-4 0  9992
2 49161  70.0016  75.8848 0003432 277.4431 281.2881 15.69750166  4029
STARLINK-3082           
1 49162U 21082AJ  21275.50002315  .00016872  00000-0  14293-3 0  9994
2 49162  70.0021  75.1715 0003469 271.3671 268.2503 15.69731664  4153
STARLINK-3088           
1 49163U 21082AK  21275.50002315  .00016035  00000-0  13575-3 0  9998
2 49163  70.0016  75.1745 0003228 272.5385 264.9658 15.69765528  4159
STARLINK-3106           
1 49164U 21082AL  21275.25001157  .00008186  00000-0  70301-4 0  9993
2 49164  70.0002  75.8574 0003704 268.7442 306.7662 15.69742753  4113
STARLINK-3052           
1 49165U 21082AM  21275.50002315  .00459773  00000-0  37030-2 0  9991
2 49165  70.0005  75.1638 0003721 277.6551 264.1653 15.69370815  4191
STARLINK-3089           
1 49166U 21082AN  21275.25001157  .00008723  00000-0  74789-4 0  9996
2 49166  70.0002  75.8600 0003908 265.3630 308.0212 15.69742262  4158
STARLINK-3054           
1 49167U 21082AP  21275.25001157  .00092982  00000-0  77393-3 0  9990
2 49167  70.0003  75.8629 0003653 272.7829 298.5006 15.69689650  4155
STARLINK-3101           
1 49168U 21082AQ  21275.25001157  .00028454  00000-0  23948-3 0  9991
2 49168  70.0003  75.8499 0003651 267.3315 314.5627 15.69731692  4151
STARLINK-3046           
1 49169U 21082AR  21275.50002315 -.00051514  00000-0 -43129-3 0  9995
2 49169  70.0013  75.1590 0003601 271.5780 278.6282 15.69809931  4199
STARLINK-3074           
1 49170U 21082AS  21275.58334491  .00070914  00000-0  59186-3 0  9991
2 49170  70.0004  74.9058 0003466 267.7984  43.6138 15.69705590  3004
STARLINK-3107           
1 49171U 21082AT  21275.58334491 -.00021903  00000-0 -18198-3 0  9996
2 49171  70.0030  74.9231 0003666 272.4324  30.6845 15.69773979  4165
STARLINK-3091           
1 49172U 21082AU  21275.25001157  .00034065  00000-0  28530-3 0  9993
2 49172  70.0012  75.8468 0003648 271.6058 318.8449 15.69805348  2955
STARLINK-3045           
1 49173U 21082AV  21275.58334491 -.00180324  00000-0 -15340-2 0  9996
2 49173  70.0003  74.5936 0003507 282.0043 297.8878 15.69864424  3016
STARLINK-3047           
1 49174U 21082AW  21275.25001157 -.00025672  00000-0 -21376-3 0  9992
2 49174  70.0019  75.8522 0003546 272.0897 314.2942 15.69767272  4120
STARLINK-3087           
1 49175U 21082AX  21275.58334491  .00033707  00000-0  28325-3 0  9996
2 49175  70.0003  74.9009 0003595 268.0663  47.5899 15.69727207  3001
STARLINK-3069           
1 49176U 21082AY  21275.58334491  .00028272  00000-0  23799-3 0  9998
2 49176  70.0002  74.8908 0003510 269.3932  54.7680 15.69730366  3006
STARLINK-3103           
1 49177U 21082AZ  21275.58334491  .00036491  00000-0  30642-3 0  9996
2 49177  70.0004  74.8983 0003488 268.7163  49.0671 15.69725607  4207
STARLINK-3086           
1 49178U 21082BA  21275.58334491 -.00026475  00000-0 -22019-3 0  9999
2 49178  70.0030  74.9000 0003553 268.8834  53.3209 15.69803387  4169
STARLINK-3043           
1 49179U 21082BB  21275.58334491 -.00118332  00000-0 -10018-2 0  9999
2 49179  70.0009  74.8989 0003577 269.4079  50.5159 15.69788670  3007
STARLINK-3050           
1 49180U 21082BC  21275.58334491 -.00084866  00000-0 -71454-3 0  9997
2 49180  70.0028  74.8951 0003553 271.2142  55.2366 15.69808611  4174
STARLINK-3059           
1 49181U 21082BD  21275.08334491  .00053684  00000-0  44893-3 0  9992
2 49181  70.0011  76.2973 0003313 278.5384 105.4597 15.69731780  4096
FALCON 9 DEB            
1 49182U 21082BE  21275.48651062  .03054406  42419-5  61373-3 0  9996
2 49182  69.9809  73.1623 0026597 126.1748 234.1944 16.29977937  3030
